LEMUR-2-SAOIRSEDH5GUO   
1 47453U 21006AS  23228.14652471  .00058461  00000+0  13298-2 0  9997
2 47453  97.3909 289.9064 0006611 205.4651 154.6271 15.42764345142067
LEMUR-2-NALLYWACKER     
1 47457U 21006AW  23228.08211933  .00063068  00000+0  14070-2 0  9996
2 47457  97.3885 289.8227 0006929 203.2798 156.8137 15.43321809142075
LEMUR-2-MANGO1          
1 47493U 21006CJ  23227.61872955  .00027636  00000+0  87676-3 0  9995
2 47493  97.3841 285.8569 0007159 218.1170 141.9567 15.32628723141813
LEMUR-2-RUAIRI-EILIDH   
1 47511U 21006DC  23228.12051612  .00031649  00000+0  91873-3 0  9995
2 47511  97.3822 286.6097 0004578 199.8939 160.2127 15.35434076141914
LEMUR-2-JENNIFERSONG    
1 47525U 21006DR  23228.14720285  .00047424  00000+0  11126-2 0  9991
2 47525  97.3837 289.3488 0006174 192.8363 167.2728 15.41891713142082
LEMUR-2-CHANTAL         
1 47529U 21006DV  23227.39535222  .00022967  00000+0  72659-3 0  9990
2 47529  97.3819 285.0795 0004861 211.6849 148.4101 15.32770049142703
LEMUR-2-NOOBNOOB        
1 47538U 21006DY  23227.63102075  .00026079  00000+0  74851-3 0  9997
2 47538  97.3877 287.9395 0006835 208.8193 151.2674 15.35816688141908
LEMUR-2-AMANDA-SVANTE   
1 48269U 21034B   23228.13313802  .00007029  00000+0  68722-3 0  9992
2 48269  97.7034 294.5153 0004937 110.4371 249.7379 14.92645237124753
LEMUR-2-SPECIAL-K       
1 48273U 21034F   23228.09826977  .00002998  00000+0  29362-3 0  9991
2 48273  97.7034 294.5518 0004946 106.8540 253.3222 14.93014065124769
LEMUR-2-JACKSON         
1 48885U 21059G   23227.38796811  .00044489  00000+0  10664-2 0  9996
2 48885  97.5928   7.4349 0004383  62.8119 297.3573 15.41268894118584
LEMUR-2-ANNABANANA      
1 48923U 21059AW  23228.39070068  .00022662  00000+0  48457-3 0  9991
2 48923  97.5869   9.9726 0005754  47.8105 312.3631 15.44819306118876
LEMUR-2-JOHN-TREIRES    
1 48925U 21059AY  23227.38450815  .00070333  00000+0  11863-2 0  9991
2 48925  97.6033  11.2450 0005831  32.4837 327.6772 15.51405309118811
LEMUR-2-AC-CUBED        
1 48927U 21059BA  23227.66517285  .00038730  00000+0  90472-3 0  9998
2 48927  97.6014   9.3646 0009374  50.0930 310.1139 15.42043135118733
LEMUR-2-MERIMA          
1 48929U 21059BC  23228.36100605  .00050220  00000+0  10411-2 0  9994
2 48929  97.5878  10.6408 0008764  38.9133 321.2745 15.45538226118914
LEMUR-2-RAMONAMAE       
1 51021U 22002AP  23227.43021982  .00021376  00000+0  57213-3 0  9999
2 51021  97.4383 297.2489 0005516  57.1408 303.0367 15.38042826 87970
LEMUR-2-KING-JULIEN     
1 51022U 22002AQ  23228.00483971  .00051272  00000+0  13674-2 0  9994
2 51022  97.4362 297.3937 0004483  45.4717 314.6893 15.37968356 88047
LEMUR-2-ROHOVITHSA      
1 51036U 22002BE  23228.19244659  .00022013  00000+0  83080-3 0  9997
2 51036  97.4366 295.0467 0007448  51.5828 308.6078 15.27018114 87891
LEMUR-2-MIRIWARI        
1 51054U 22002BY  23228.12633814  .00018912  00000+0  70050-3 0  9991
2 51054  97.4358 295.0633 0006107  46.8032 313.3717 15.27677530 87898
LEMUR-2-DJIRANG         
1 51058U 22002CC  23227.99651409  .00029139  00000+0  10751-2 0  9993
2 51058  97.4332 294.7679 0006119  44.1959 315.9768 15.27716789 87874
LEMUR-2-TENNYSONLILY    
1 52732U 22057A   23227.30969114  .00041749  00000+0  12837-2 0  9991
2 52732  97.5553 346.3345 0006722 153.0935 207.0657 15.33541605 67807
LEMUR-2-VANDENDRIES     
1 52733U 22057B   23227.76249338  .00022508  00000+0  86131-3 0  9992
2 52733  97.5382 344.6667 0006115 152.6058 207.5504 15.26563980 67788
LEMUR-2-KAREN B         
1 52736U 22057E   23227.30742314  .00047117  00000+0  13625-2 0  9997
2 52736  97.5408 346.0095 0005177 144.8111 215.3475 15.35463026 67831
LEMUR-2-HANCOM-1        
1 52740U 22057J   23228.33207380  .00024091  00000+0  90712-3 0  9994
2 52740  97.5585 346.5185 0008759 137.1671 223.0252 15.27067504 67888
LEMUR-2-MIMI1307        
1 52769U 22057AP  23228.28448136  .00043745  00000+0  16611-2 0  9997
2 52769  97.5573 346.6599 0009821 118.7876 241.4350 15.26646188 67893
LEMUR-2-PHILARI         
1 55013U 23001E   23228.41401597  .00023404  00000+0  10227-2 0  9994
2 55013  97.4708 287.6489 0009750 155.6543 204.5155 15.22058219 34234
LEMUR-2-DISCLAIMER      
1 55014U 23001F   23228.10251422  .00023484  00000+0  10430-2 0  9995
2 55014  97.4759 287.4175 0010691 163.6979 196.4603 15.21493664 34186
LEMUR-2-STEVEALBERS     
1 55017U 23001J   23228.14013535  .00021448  00000+0  96267-3 0  9994
2 55017  97.4694 287.2072 0010118 157.3766 202.7918 15.21157108 34189
LEMUR-2-EMMACULATE      
1 55037U 23001AE  23227.60141860  .00026064  00000+0  10561-2 0  9990
2 55037  97.4766 287.6739 0014645 151.9277 208.2753 15.24538224 34151
LEMUR-2-MMOLO           
1 55038U 23001AF  23227.41255294  .00007129  00000+0  28555-3 0  9991
2 55038  97.4789 287.6642 0015069 152.4194 207.7846 15.25250538 34130
LEMUR-2-FUENTETAJA-01   
1 55088U 23001CH  23228.11029511  .00018134  00000+0  77781-3 0  9998
2 55088  97.4795 287.9934 0014777 149.3145 210.8959 15.22688687 34211
LEMUR-2-ONREFLECTION    
1 56182U 23054E   23227.25854977  .00013533  00000+0  54547-3 0  9991
2 56182  97.3904 121.3003 0008647 170.8985 189.2411 15.24919039 19176
LEMUR-2-SPACEGUS        
1 56187U 23054K   23227.28904183  .00011916  00000+0  47168-3 0  9998
2 56187  97.3907 121.4201 0009172 157.1869 202.9778 15.25552698 19183
LEMUR-2-ROMEO-N-LEO     
1 56206U 23054AE  23228.25928419  .00031038  00000+0  10651-2 0  9999
2 56206  97.3881 122.8409 0013312 147.6156 212.5904 15.30011175 19369
LEMUR-2-EMBRIONOVIS     
1 56970U 23084AQ  23228.31428520  .00003888  00000+0  21539-3 0  9995
2 56970  97.5235 344.1162 0015692 358.2441   1.8733 15.14305492  9758
LEMUR-2-NAZIYAH         
1 56974U 23084AU  23227.29945442  .00013601  00000+0  71821-3 0  9995
2 56974  97.5137 343.0904 0014520 352.2505   7.8500 15.15545825  9608
LEMUR-2-AADAM-ALIYAH    
1 56977U 23084AX  23227.76032204  .00006209  00000+0  33046-3 0  9996
2 56977  97.5156 343.5662 0014916 352.0440   8.0554 15.15504310  9676
LEMUR-2-MANO            
1 57390U 23100E   23228.34365689  .00008064  00000+0  68158-3 0  9999
2 57390  99.4640 359.8989 0014052 187.3636 172.7377 14.98362803  4388
LEMUR-2-DEVERILL-M-T    
1 57391U 23100F   23228.33455409  .00007261  00000+0  60694-3 0  9994
2 57391  99.4704 359.9307 0014847 178.8095 181.3159 14.98833365  4381
